ALOS (DAICHI)           
1 28931U 06002A   26016.62507365  .00000839  00000+0  14941-3 0  9991
2 28931  98.1136 332.8781 0002162  88.8052 271.3401 14.69606419 65833
H-2A R/B                
1 28932U 06002B   26016.39552885  .00005987  00000+0  31039-3 0  9999
2 28932  98.2332 158.9995 0054412  59.8962 300.7647 15.15306993 86513
RESURS-DK 1             
1 29228U 06021A   26016.49010220  .00001758  00000+0  10723-3 0  9991
2 29228  69.9323  12.0147 0005634 227.5195 132.5495 15.12379517 79636
CZ-4B R/B               
1 29507U 06046C   26016.55220798  .00003240  00000+0  16844-3 0  9996
2 29507  97.5691  61.5972 0035296  88.3836 272.1439 15.16262770 52140
CZ-2C R/B               
1 31114U 07010B   26016.31069119  .00000060  00000+0  46022-4 0  9996
2 31114  98.3972 132.2221 0060105  86.6850 274.1202 14.20224904972282
COSMO-SKYMED 1          
1 31598U 07023A   26016.63788873  .00001955  00000+0  17934-3 0  9999
2 31598  97.8838 207.2741 0001056  75.5077 284.6260 14.96057827  7124
COSMOS 2428             
1 31792U 07029A   26016.57068170  .00000341  00000+0  20877-3 0  9993
2 31792  70.9399 312.7510 0005774 337.1342  22.9521 14.12911340956733
SL-16 R/B               
1 31793U 07029B   26016.47905384 -.00000274  00000+0 -11736-3 0  9991
2 31793  70.9758 282.1349 0002207 273.7359 259.0310 14.14823441957987
KORONAS-FOTON           
1 33504U 09003A   26016.61174610  .00007582  00000+0  17712-3 0  9990
2 33504  82.4322 329.9514 0010970 357.1376   2.9806 15.41927324937710
CZ-2C R/B               
1 37731U 11030B   26016.46764376  .00000829  00000+0  11132-3 0  9993
2 37731  97.8458 334.8171 0053188 158.7531 317.6544 14.81014054782360
H-2A R/B                
1 38341U 12025E   26016.45366769  .00002133  00000+0  19885-3 0  9992
2 38341  98.4643 339.3754 0046120 122.3565 238.2130 14.94686651740411
SHIJIAN-16 (SJ-16)      
1 39358U 13057A   26016.60331942  .00000926  00000+0  93632-4 0  9990
2 39358  74.9738 283.6821 0017738 239.3765 120.5675 14.92141939663733
