CCSDS_OMM_VERS = 2.0
CREATION_DATE  = 
ORIGINATOR     = 

OBJECT_NAME    = ALOS (DAICHI)
OBJECT_ID      = 2006-002A
CENTER_NAME    = EARTH
REF_FRAME      = TEME
TIME_SYSTEM    = UTC
MEAN_ELEMENT_THEORY = SGP/SGP4

EPOCH          = 2026-01-16T15:00:06.363360
MEAN_MOTION    = 14.69606419
ECCENTRICITY   = .00021624
INCLINATION    = 98.1136
RA_OF_ASC_NODE = 332.8781
ARG_OF_PERICENTER = 88.8052
MEAN_ANOMALY   = 271.3401

EPHEMERIS_TYPE = 0
CLASSIFICATION_TYPE = U
NORAD_CAT_ID   = 28931
ELEMENT_SET_NO = 999
REV_AT_EPOCH   = 6583
BSTAR          = .14940701E-3
MEAN_MOTION_DOT = .839E-5
MEAN_MOTION_DDOT = 0

CCSDS_OMM_VERS = 2.0
CREATION_DATE  = 
ORIGINATOR     = 

OBJECT_NAME    = H-2A R/B
OBJECT_ID      = 2006-002B
CENTER_NAME    = EARTH
REF_FRAME      = TEME
TIME_SYSTEM    = UTC
MEAN_ELEMENT_THEORY = SGP/SGP4

EPOCH          = 2026-01-16T09:29:33.692640
MEAN_MOTION    = 15.15306993
ECCENTRICITY   = .00544126
INCLINATION    = 98.2332
RA_OF_ASC_NODE = 158.9995
ARG_OF_PERICENTER = 59.8962
MEAN_ANOMALY   = 300.7647

EPHEMERIS_TYPE = 0
CLASSIFICATION_TYPE = U
NORAD_CAT_ID   = 28932
ELEMENT_SET_NO = 999
REV_AT_EPOCH   = 8651
BSTAR          = .31039266E-3
MEAN_MOTION_DOT = .5987E-4
MEAN_MOTION_DDOT = 0

CCSDS_OMM_VERS = 2.0
CREATION_DATE  = 
ORIGINATOR     = 

OBJECT_NAME    = RESURS-DK 1
OBJECT_ID      = 2006-021A
CENTER_NAME    = EARTH
REF_FRAME      = TEME
TIME_SYSTEM    = UTC
MEAN_ELEMENT_THEORY = SGP/SGP4

EPOCH          = 2026-01-16T11:45:44.830080
MEAN_MOTION    = 15.12379517
ECCENTRICITY   = .00056346
INCLINATION    = 69.9323
RA_OF_ASC_NODE = 12.0147
ARG_OF_PERICENTER = 227.5195
MEAN_ANOMALY   = 132.5495

EPHEMERIS_TYPE = 0
CLASSIFICATION_TYPE = U
NORAD_CAT_ID   = 29228
ELEMENT_SET_NO = 999
REV_AT_EPOCH   = 7963
BSTAR          = .10722708E-3
MEAN_MOTION_DOT = .1758E-4
MEAN_MOTION_DDOT = 0

CCSDS_OMM_VERS = 2.0
CREATION_DATE  = 
ORIGINATOR     = 

OBJECT_NAME    = CZ-4B R/B
OBJECT_ID      = 2006-046C
CENTER_NAME    = EARTH
REF_FRAME      = TEME
TIME_SYSTEM    = UTC
MEAN_ELEMENT_THEORY = SGP/SGP4

EPOCH          = 2026-01-16T13:15:10.769472
MEAN_MOTION    = 15.16262770
ECCENTRICITY   = .00352964
INCLINATION    = 97.5691
RA_OF_ASC_NODE = 61.5972
ARG_OF_PERICENTER = 88.3836
MEAN_ANOMALY   = 272.1439

EPHEMERIS_TYPE = 0
CLASSIFICATION_TYPE = U
NORAD_CAT_ID   = 29507
ELEMENT_SET_NO = 999
REV_AT_EPOCH   = 5214
BSTAR          = .16843998E-3
MEAN_MOTION_DOT = .324E-4
MEAN_MOTION_DDOT = 0

CCSDS_OMM_VERS = 2.0
CREATION_DATE  = 
ORIGINATOR     = 

OBJECT_NAME    = CZ-2C R/B
OBJECT_ID      = 2007-010B
CENTER_NAME    = EARTH
REF_FRAME      = TEME
TIME_SYSTEM    = UTC
MEAN_ELEMENT_THEORY = SGP/SGP4

EPOCH          = 2026-01-16T07:27:23.718816
MEAN_MOTION    = 14.20224904
ECCENTRICITY   = .00601053
INCLINATION    = 98.3972
RA_OF_ASC_NODE = 132.2221
ARG_OF_PERICENTER = 86.6850
MEAN_ANOMALY   = 274.1202

EPHEMERIS_TYPE = 0
CLASSIFICATION_TYPE = U
NORAD_CAT_ID   = 31114
ELEMENT_SET_NO = 999
REV_AT_EPOCH   = 97228
BSTAR          = .46021903E-4
MEAN_MOTION_DOT = .6E-6
MEAN_MOTION_DDOT = 0

CCSDS_OMM_VERS = 2.0
CREATION_DATE  = 
ORIGINATOR     = 

OBJECT_NAME    = COSMO-SKYMED 1
OBJECT_ID      = 2007-023A
CENTER_NAME    = EARTH
REF_FRAME      = TEME
TIME_SYSTEM    = UTC
MEAN_ELEMENT_THEORY = SGP/SGP4

EPOCH          = 2026-01-16T15:18:33.586272
MEAN_MOTION    = 14.96057827
ECCENTRICITY   = .00010561
INCLINATION    = 97.8838
RA_OF_ASC_NODE = 207.2741
ARG_OF_PERICENTER = 75.5077
MEAN_ANOMALY   = 284.6260

EPHEMERIS_TYPE = 0
CLASSIFICATION_TYPE = U
NORAD_CAT_ID   = 31598
ELEMENT_SET_NO = 999
REV_AT_EPOCH   = 712
BSTAR          = .17934186E-3
MEAN_MOTION_DOT = .1955E-4
MEAN_MOTION_DDOT = 0

CCSDS_OMM_VERS = 2.0
CREATION_DATE  = 
ORIGINATOR     = 

OBJECT_NAME    = COSMOS 2428
OBJECT_ID      = 2007-029A
CENTER_NAME    = EARTH
REF_FRAME      = TEME
TIME_SYSTEM    = UTC
MEAN_ELEMENT_THEORY = SGP/SGP4

EPOCH          = 2026-01-16T13:41:46.898880
MEAN_MOTION    = 14.12911340
ECCENTRICITY   = .00057749
INCLINATION    = 70.9399
RA_OF_ASC_NODE = 312.7510
ARG_OF_PERICENTER = 337.1342
MEAN_ANOMALY   = 22.9521

EPHEMERIS_TYPE = 0
CLASSIFICATION_TYPE = U
NORAD_CAT_ID   = 31792
ELEMENT_SET_NO = 999
REV_AT_EPOCH   = 95673
BSTAR          = .20876577E-3
MEAN_MOTION_DOT = .341E-5
MEAN_MOTION_DDOT = 0

CCSDS_OMM_VERS = 2.0
CREATION_DATE  = 
ORIGINATOR     = 

OBJECT_NAME    = SL-16 R/B
OBJECT_ID      = 2007-029B
CENTER_NAME    = EARTH
REF_FRAME      = TEME
TIME_SYSTEM    = UTC
MEAN_ELEMENT_THEORY = SGP/SGP4

EPOCH          = 2026-01-16T11:29:50.251776
MEAN_MOTION    = 14.14823441
ECCENTRICITY   = .0002207
INCLINATION    = 70.9758
RA_OF_ASC_NODE = 282.1349
ARG_OF_PERICENTER = 273.7359
MEAN_ANOMALY   = 259.0310

EPHEMERIS_TYPE = 0
CLASSIFICATION_TYPE = U
NORAD_CAT_ID   = 31793
ELEMENT_SET_NO = 999
REV_AT_EPOCH   = 95798
BSTAR          = -.11736282E-3
MEAN_MOTION_DOT = -.274E-5
MEAN_MOTION_DDOT = 0

CCSDS_OMM_VERS = 2.0
CREATION_DATE  = 
ORIGINATOR     = 

OBJECT_NAME    = KORONAS-FOTON
OBJECT_ID      = 2009-003A
CENTER_NAME    = EARTH
REF_FRAME      = TEME
TIME_SYSTEM    = UTC
MEAN_ELEMENT_THEORY = SGP/SGP4

EPOCH          = 2026-01-16T14:40:54.863040
MEAN_MOTION    = 15.41927324
ECCENTRICITY   = .001097
INCLINATION    = 82.4322
RA_OF_ASC_NODE = 329.9514
ARG_OF_PERICENTER = 357.1376
MEAN_ANOMALY   = 2.9806

EPHEMERIS_TYPE = 0
CLASSIFICATION_TYPE = U
NORAD_CAT_ID   = 33504
ELEMENT_SET_NO = 999
REV_AT_EPOCH   = 93771
BSTAR          = .17712395E-3
MEAN_MOTION_DOT = .7582E-4
MEAN_MOTION_DDOT = 0

CCSDS_OMM_VERS = 2.0
CREATION_DATE  = 
ORIGINATOR     = 

OBJECT_NAME    = CZ-2C R/B
OBJECT_ID      = 2011-030B
CENTER_NAME    = EARTH
REF_FRAME      = TEME
TIME_SYSTEM    = UTC
MEAN_ELEMENT_THEORY = SGP/SGP4

EPOCH          = 2026-01-16T11:13:24.420864
MEAN_MOTION    = 14.81014054
ECCENTRICITY   = .00531887
INCLINATION    = 97.8458
RA_OF_ASC_NODE = 334.8171
ARG_OF_PERICENTER = 158.7531
MEAN_ANOMALY   = 317.6544

EPHEMERIS_TYPE = 0
CLASSIFICATION_TYPE = U
NORAD_CAT_ID   = 37731
ELEMENT_SET_NO = 999
REV_AT_EPOCH   = 78236
BSTAR          = .1113176E-3
MEAN_MOTION_DOT = .829E-5
MEAN_MOTION_DDOT = 0

CCSDS_OMM_VERS = 2.0
CREATION_DATE  = 
ORIGINATOR     = 

OBJECT_NAME    = H-2A R/B
OBJECT_ID      = 2012-025E
CENTER_NAME    = EARTH
REF_FRAME      = TEME
TIME_SYSTEM    = UTC
MEAN_ELEMENT_THEORY = SGP/SGP4

EPOCH          = 2026-01-16T10:53:16.888416
MEAN_MOTION    = 14.94686651
ECCENTRICITY   = .00461207
INCLINATION    = 98.4643
RA_OF_ASC_NODE = 339.3754
ARG_OF_PERICENTER = 122.3565
MEAN_ANOMALY   = 238.2130

EPHEMERIS_TYPE = 0
CLASSIFICATION_TYPE = U
NORAD_CAT_ID   = 38341
ELEMENT_SET_NO = 999
REV_AT_EPOCH   = 74041
BSTAR          = .19885372E-3
MEAN_MOTION_DOT = .2133E-4
MEAN_MOTION_DDOT = 0

CCSDS_OMM_VERS = 2.0
CREATION_DATE  = 
ORIGINATOR     = 

OBJECT_NAME    = SHIJIAN-16 (SJ-16)
OBJECT_ID      = 2013-057A
CENTER_NAME    = EARTH
REF_FRAME      = TEME
TIME_SYSTEM    = UTC
MEAN_ELEMENT_THEORY = SGP/SGP4

EPOCH          = 2026-01-16T14:28:46.797888
MEAN_MOTION    = 14.92141939
ECCENTRICITY   = .00177388
INCLINATION    = 74.9738
RA_OF_ASC_NODE = 283.6821
ARG_OF_PERICENTER = 239.3765
MEAN_ANOMALY   = 120.5675

EPHEMERIS_TYPE = 0
CLASSIFICATION_TYPE = U
NORAD_CAT_ID   = 39358
ELEMENT_SET_NO = 999
REV_AT_EPOCH   = 66373
BSTAR          = .93631784E-4
MEAN_MOTION_DOT = .926E-5
MEAN_MOTION_DDOT = 0

